{
  "type": "FeatureCollection",
  "features": [
    {
      "type": "Feature",
      "properties": {
        "norad_id": 35646,
        "name": "COSMOS 2251 DEB",
        "group": "cosmos-2251-debris",
        "lat": -57.532375049043566,
        "lon": 29.506627016856747,
        "alt_km": 1332.154005638472,
        "timestamp": "2025-12-12T09:49:09.128444+00:00",
        "meta_object_name": "COSMOS 2251 DEB",
        "meta_object_id": "1993-036ANM",
        "meta_epoch": "2025-12-11T14:49:41.257632",
        "meta_mean_motion": 13.40818919,
        "meta_eccentricity": 0.04570406,
        "meta_inclination": 73.8724,
        "meta_ra_of_asc_node": 57.8087,
        "meta_arg_of_pericenter": 168.1759,
        "meta_mean_anomaly": 268.2989,
        "meta_ephemeris_type": 0,
        "meta_classification_type": "U",
        "meta_norad_cat_id": 35646,
        "meta_element_set_no": 999,
        "meta_rev_at_epoch": 81843,
        "meta_bstar": 0.00139883,
        "meta_mean_motion_dot": 1.406e-05,
        "meta_mean_motion_ddot": 0,
        "tle_line1": "1 35646U 93036ANM 25345.61783863  .00001406  00000+0  13988-2 0  9997",
        "tle_line2": "2 35646  73.8724  57.8087 0457040 168.1759 268.2989 13.40818919818431"
      },
      "geometry": {
        "type": "Point",
        "coordinates": [
          29.506627016856747,
          -57.532375049043566
        ]
      }
    },
    {
      "type": "Feature",
      "properties": {
        "norad_id": 35647,
        "name": "COSMOS 2251 DEB",
        "group": "cosmos-2251-debris",
        "lat": -38.3228984080633,
        "lon": -77.90545910265406,
        "alt_km": 743.7454812907654,
        "timestamp": "2025-12-12T09:49:09.128454+00:00",
        "meta_object_name": "COSMOS 2251 DEB",
        "meta_object_id": "1993-036ANN",
        "meta_epoch": "2025-12-10T14:45:43.130592",
        "meta_mean_motion": 14.43615239,
        "meta_eccentricity": 0.0045496,
        "meta_inclination": 74.0232,
        "meta_ra_of_asc_node": 298.5182,
        "meta_arg_of_pericenter": 38.1034,
        "meta_mean_anomaly": 322.3325,
        "meta_ephemeris_type": 0,
        "meta_classification_type": "U",
        "meta_norad_cat_id": 35647,
        "meta_element_set_no": 999,
        "meta_rev_at_epoch": 67633,
        "meta_bstar": 0.001375,
        "meta_mean_motion_dot": 4.698e-05,
        "meta_mean_motion_ddot": 0,
        "tle_line1": "1 35647U 93036ANN 25344.61508253  .00004698  00000+0  13750-2 0  9998",
        "tle_line2": "2 35647  74.0232 298.5182 0045496  38.1034 322.3325 14.43615239676330"
      },
      "geometry": {
        "type": "Point",
        "coordinates": [
          -77.90545910265406,
          -38.3228984080633
        ]
      }
    },
    {
      "type": "Feature",
      "properties": {
        "norad_id": 35650,
        "name": "COSMOS 2251 DEB",
        "group": "cosmos-2251-debris",
        "lat": 73.2061320286713,
        "lon": 90.94766118445435,
        "alt_km": 600.8286631018764,
        "timestamp": "2025-12-12T09:49:09.128465+00:00",
        "meta_object_name": "COSMOS 2251 DEB",
        "meta_object_id": "1993-036ANR",
        "meta_epoch": "2025-12-11T13:04:36.004224",
        "meta_mean_motion": 14.83581418,
        "meta_eccentricity": 0.00145271,
        "meta_inclination": 74.0463,
        "meta_ra_of_asc_node": 21.242,
        "meta_arg_of_pericenter": 69.1098,
        "meta_mean_anomaly": 81.4479,
        "meta_ephemeris_type": 0,
        "meta_classification_type": "U",
        "meta_norad_cat_id": 35650,
        "meta_element_set_no": 999,
        "meta_rev_at_epoch": 87616,
        "meta_bstar": 0.0032878905,
        "meta_mean_motion_dot": 0.00027227,
        "meta_mean_motion_ddot": 0,
        "tle_line1": "1 35650U 93036ANR 25345.54486116  .00027227  00000+0  32879-2 0  9994",
        "tle_line2": "2 35650  74.0463  21.2420 0014527  69.1098  81.4479 14.83581418876162"
      },
      "geometry": {
        "type": "Point",
        "coordinates": [
          90.94766118445435,
          73.2061320286713
        ]
      }
    },
    {
      "type": "Feature",
      "properties": {
        "norad_id": 35660,
        "name": "COSMOS 2251 DEB",
        "group": "cosmos-2251-debris",
        "lat": 57.91955208825793,
        "lon": 161.01826293303594,
        "alt_km": 730.0020204708271,
        "timestamp": "2025-12-12T09:49:09.128475+00:00",
        "meta_object_name": "COSMOS 2251 DEB",
        "meta_object_id": "1993-036APB",
        "meta_epoch": "2025-12-10T03:25:35.080032",
        "meta_mean_motion": 14.49912866,
        "meta_eccentricity": 0.00186346,
        "meta_inclination": 74.0397,
        "meta_ra_of_asc_node": 138.1054,
        "meta_arg_of_pericenter": 287.2761,
        "meta_mean_anomaly": 189.4863,
        "meta_ephemeris_type": 0,
        "meta_classification_type": "U",
        "meta_norad_cat_id": 35660,
        "meta_element_set_no": 999,
        "meta_rev_at_epoch": 65833,
        "meta_bstar": 0.00068790313,
        "meta_mean_motion_dot": 2.638e-05,
        "meta_mean_motion_ddot": 0,
        "tle_line1": "1 35660U 93036APB 25344.14276713  .00002638  00000+0  68790-3 0  9991",
        "tle_line2": "2 35660  74.0397 138.1054 0018634 287.2761 189.4863 14.49912866658333"
      },
      "geometry": {
        "type": "Point",
        "coordinates": [
          161.01826293303594,
          57.91955208825793
        ]
      }
    },
    {
      "type": "Feature",
      "properties": {
        "norad_id": 35661,
        "name": "COSMOS 2251 DEB",
        "group": "cosmos-2251-debris",
        "lat": 14.252922921895118,
        "lon": 84.56763511420073,
        "alt_km": 670.014486879083,
        "timestamp": "2025-12-12T09:49:09.128485+00:00",
        "meta_object_name": "COSMOS 2251 DEB",
        "meta_object_id": "1993-036APC",
        "meta_epoch": "2025-12-09T17:08:36.134304",
        "meta_mean_motion": 14.86479367,
        "meta_eccentricity": 0.00883269,
        "meta_inclination": 74.0134,
        "meta_ra_of_asc_node": 85.7599,
        "meta_arg_of_pericenter": 190.7537,
        "meta_mean_anomaly": 169.1759,
        "meta_ephemeris_type": 0,
        "meta_classification_type": "U",
        "meta_norad_cat_id": 35661,
        "meta_element_set_no": 999,
        "meta_rev_at_epoch": 87823,
        "meta_bstar": 0.0014984263,
        "meta_mean_motion_dot": 0.00014219,
        "meta_mean_motion_ddot": 0,
        "tle_line1": "1 35661U 93036APC 25343.71430711  .00014219  00000+0  14984-2 0  9997",
        "tle_line2": "2 35661  74.0134  85.7599 0088326 190.7537 169.1759 14.86479367878235"
      },
      "geometry": {
        "type": "Point",
        "coordinates": [
          84.56763511420073,
          14.252922921895118
        ]
      }
    },
    {
      "type": "Feature",
      "properties": {
        "norad_id": 35663,
        "name": "COSMOS 2251 DEB",
        "group": "cosmos-2251-debris",
        "lat": -67.73189184599853,
        "lon": 80.8812324681027,
        "alt_km": 681.5183568335851,
        "timestamp": "2025-12-12T09:49:09.128496+00:00",
        "meta_object_name": "COSMOS 2251 DEB",
        "meta_object_id": "1993-036APE",
        "meta_epoch": "2025-12-11T16:08:16.742400",
        "meta_mean_motion": 14.65641013,
        "meta_eccentricity": 0.0006473,
        "meta_inclination": 74.0174,
        "meta_ra_of_asc_node": 126.7221,
        "meta_arg_of_pericenter": 201.4165,
        "meta_mean_anomaly": 158.6734,
        "meta_ephemeris_type": 0,
        "meta_classification_type": "U",
        "meta_norad_cat_id": 35663,
        "meta_element_set_no": 999,
        "meta_rev_at_epoch": 73366,
        "meta_bstar": 0.0028072836,
        "meta_mean_motion_dot": 0.0001527,
        "meta_mean_motion_ddot": 0,
        "tle_line1": "1 35663U 93036APE 25345.67241600  .00015270  00000+0  28073-2 0  9995",
        "tle_line2": "2 35663  74.0174 126.7221 0006473 201.4165 158.6734 14.65641013733668"
      },
      "geometry": {
        "type": "Point",
        "coordinates": [
          80.8812324681027,
          -67.73189184599853
        ]
      }
    },
    {
      "type": "Feature",
      "properties": {
        "norad_id": 35667,
        "name": "COSMOS 2251 DEB",
        "group": "cosmos-2251-debris",
        "lat": -18.524605777570404,
        "lon": 135.24065900722192,
        "alt_km": 708.5215102237507,
        "timestamp": "2025-12-12T09:49:09.128507+00:00",
        "meta_object_name": "COSMOS 2251 DEB",
        "meta_object_id": "1993-036APJ",
        "meta_epoch": "2025-12-11T04:18:22.945536",
        "meta_mean_motion": 14.59989469,
        "meta_eccentricity": 0.00198295,
        "meta_inclination": 74.0549,
        "meta_ra_of_asc_node": 143.0806,
        "meta_arg_of_pericenter": 203.8334,
        "meta_mean_anomaly": 156.1916,
        "meta_ephemeris_type": 0,
        "meta_classification_type": "U",
        "meta_norad_cat_id": 35667,
        "meta_element_set_no": 999,
        "meta_rev_at_epoch": 70780,
        "meta_bstar": 0.0016781081,
        "meta_mean_motion_dot": 8.053e-05,
        "meta_mean_motion_ddot": 0,
        "tle_line1": "1 35667U 93036APJ 25345.17943224  .00008053  00000+0  16781-2 0  9999",
        "tle_line2": "2 35667  74.0549 143.0806 0019829 203.8334 156.1916 14.59989469707807"
      },
      "geometry": {
        "type": "Point",
        "coordinates": [
          135.24065900722192,
          -18.524605777570404
        ]
      }
    }
  ]
}